<?xml version="1.0" encoding="UTF-8" standalone="yes"?>
<ndm>
    <oem id="CCSDS_OEM_VERS" version="2.0">
        <header>
            <CREATION_DATE>2022-033T20:15:43.734Z</CREATION_DATE>
            <ORIGINATOR>JSC</ORIGINATOR>
        </header>
        <body>
            <segment>
                <metadata>
                    <OBJECT_NAME>ISS</OBJECT_NAME>
                    <OBJECT_ID>1998-067-A</OBJECT_ID>
                    <CENTER_NAME>EARTH</CENTER_NAME>
                    <REF_FRAME>EME2000</REF_FRAME>
                    <TIME_SYSTEM>UTC</TIME_SYSTEM>
                    <START_TIME>2022-033T12:00:00.000Z</START_TIME>
                    <STOP_TIME>2022-048T12:00:00.000Z</STOP_TIME>
                </metadata>
                <data>
                    <COMMENT>Units are in kg and m^2</COMMENT>
                    <COMMENT>MASS=445386.00</COMMENT>
                    <COMMENT>DRAG_AREA=1437.60</COMMENT>
                    <COMMENT>DRAG_COEFF=0.90</COMMENT>
                    <COMMENT>SOLAR_RAD_AREA=0.00</COMMENT>
                    <COMMENT>SOLAR_RAD_COEFF=0.00</COMMENT>
                    <COMMENT>Orbits start at the ascending node epoch </COMMENT>
                    <COMMENT>ISS first asc. node: EPOCH = 2022-02-02T13:01:32.050 $ ORBIT = 429 $ LAN(DEG) = -44.69961</COMMENT>
                    <COMMENT>ISS last asc. node : EPOCH = 2022-02-17T10:32:23.169 $ ORBIT = 660 $ LAN(DEG) = -95.86192</COMMENT>
                    <COMMENT>Begin sequence of events</COMMENT>
                    <COMMENT>TRAJECTORY EVENT SUMMARY:</COMMENT>
                    <COMMENT></COMMENT>
                    <COMMENT>|       EVENT        |       TIG        | ORB |   DV    |   HA    |   HP    |</COMMENT>
                    <COMMENT>|                    |       GMT        |     |   M/S   |   KM    |   KM    |</COMMENT>
                    <COMMENT>|                    |                  |     |  (F/S)  |  (NM)   |  (NM)   |</COMMENT>
                    <COMMENT>=============================================================================</COMMENT>
                    <COMMENT> GMT037 Reboost        037:09:30:00.000             0.2     427.5     406.7</COMMENT>
                    <COMMENT>                                                   (0.7)   (230.8)   (219.6)</COMMENT>
                    <COMMENT></COMMENT>
                    <COMMENT> 80P Launch            046:04:25:41.000             0.0     426.8     408.1</COMMENT>
                    <COMMENT>                                                   (0.0)   (230.4)   (220.4)</COMMENT>
                    <COMMENT></COMMENT>
                    <COMMENT> 80P Arrivals          048:07:02:00.000             0.0     426.2     408.4</COMMENT>
                    <COMMENT>                                                   (0.0)   (230.1)   (220.5)</COMMENT>
                    <COMMENT></COMMENT>
                    <COMMENT>=============================================================================</COMMENT>
                    <COMMENT>End sequence of events</COMMENT>
                    <stateVector>
                        <EPOCH>2022-035T03:12:00.000Z</EPOCH>
                        <X units="km">-3968.8689921681998</X>
                        <Y units="km">3031.2961318375101</Y>
                        <Z units="km">-4620.7653135359196</Z>
                        <X_DOT units="km/s">-1.7505721234265501</X_DOT>
                        <Y_DOT units="km/s">-6.8231465081112903</Y_DOT>
                        <Z_DOT units="km/s">-2.9786381549835901</Z_DOT>
                    </stateVector>
                    <stateVector>
                        <EPOCH>2022-035T03:16:00.000Z</EPOCH>
                        <X units="km">-4240.4846089126404</X>
                        <Y units="km">1303.9506447466299</Y>
                        <Z units="km">-5159.4978720473</Z>
                        <X_DOT units="km/s">-0.49939425169643997</X_DOT>
                        <Y_DOT units="km/s">-7.4839464420526998</Y_DOT>
                        <Z_DOT units="km/s">-1.48376424400477</Z_DOT>
                    </stateVector>
                    <stateVector>
                        <EPOCH>2022-035T03:20:00.000Z</EPOCH>
                        <X units="km">-4205.7625794506403</X>
                        <Y units="km">-517.613795063255</Y>
                        <Z units="km">-5324.4457684729496</Z>
                        <X_DOT units="km/s">0.78690888531184999</X_DOT>
                        <Y_DOT units="km/s">-7.6037237533762898</Y_DOT>
                        <Z_DOT units="km/s">0.11745228910916999</Z_DOT>
                    </stateVector>
                    <stateVector>
                        <EPOCH>2022-035T03:24:00.000Z</EPOCH>
                        <X units="km">-3867.3222241252602</X>
                        <Y units="km">-2301.7999321594498</Y>
                        <Z units="km">-5103.7989435765503</Z>
                        <X_DOT units="km/s">2.0164242001978998</X_DOT>
                        <Y_DOT units="km/s">-7.1743239698250996</Y_DOT>
                        <Z_DOT units="km/s">1.7102129553655101</Z_DOT>
                    </stateVector>
                    <stateVector>
                        <EPOCH>2022-035T03:28:00.000Z</EPOCH>
                        <X units="km">-3249.4834759031501</X>
                        <Y units="km">-3919.6740124775101</Y>
                        <Z units="km">-4513.3777287646399</Z>
                        <X_DOT units="km/s">3.1012096570801599</X_DOT>
                        <Y_DOT units="km/s">-6.2259625447479099</Y_DOT>
                        <Z_DOT units="km/s">3.18031817626066</Z_DOT>
                    </stateVector>
                    <stateVector>
                        <EPOCH>2022-035T03:32:00.000Z</EPOCH>
                        <X units="km">-2396.61700901312</X>
                        <Y units="km">-5254.00651192041</Y>
                        <Z units="km">-3595.5881085362998</Z>
                        <X_DOT units="km/s">3.9630651224164302</X_DOT>
                        <Y_DOT units="km/s">-4.8255121218854198</Y_DOT>
                        <Z_DOT units="km/s">4.4216687414062701</Z_DOT>
                    </stateVector>
                    <stateVector>
                        <EPOCH>2022-035T03:36:00.000Z</EPOCH>
                        <X units="km">-1370.1346137129999</X>
                        <Y units="km">-6207.6530891911698</Y>
                        <Z units="km">-2416.5844637203199</Z>
                        <X_DOT units="km/s">4.5390609816000396</X_DOT>
                        <Y_DOT units="km/s">-3.0726152331388299</Y_DOT>
                        <Z_DOT units="km/s">5.3436686877533504</Z_DOT>
                    </stateVector>
                    <stateVector>
                        <EPOCH>2022-035T03:40:00.000Z</EPOCH>
                        <X units="km">-244.229875255938</X>
                        <Y units="km">-6710.7042210371101</Y>
                        <Z units="km">-1061.7154630441601</Z>
                        <X_DOT units="km/s">4.7863335611895996</X_DOT>
                        <Y_DOT units="km/s">-1.09334846092297</Y_DOT>
                        <Z_DOT units="km/s">5.8780074573321599</Z_DOT>
                    </stateVector>
                    <stateVector>
                        <EPOCH>2022-035T03:44:00.000Z</EPOCH>
                        <X units="km">899.41152732421403</X>
                        <Y units="km">-6725.8350546142601</Y>
                        <Z units="km">370.53110265151099</Z>
                        <X_DOT units="km/s">4.6857894938667197</X_DOT>
                        <Y_DOT units="km/s">0.96849983395903005</Y_DOT>
                        <Z_DOT units="km/s">5.98430265470029</Z_DOT>
                    </stateVector>
                    <stateVector>
                        <EPOCH>2022-035T03:48:00.000Z</EPOCH>
                        <X units="km">1977.56847538188</X>
                        <Y units="km">-6251.2940092934996</Y>
                        <Z units="km">1775.70171789083</Z>
                        <X_DOT units="km/s">4.2438464895557804</X_DOT>
                        <Y_DOT units="km/s">2.9621140095163101</Y_DOT>
                        <Z_DOT units="km/s">5.6535953657389904</Z_DOT>
                    </stateVector>
                    <stateVector>
                        <EPOCH>2022-035T03:52:00.000Z</EPOCH>
                        <X units="km">2911.6287660944099</X>
                        <Y units="km">-5321.2396805331</Y>
                        <Z units="km">3051.0999286372198</Z>
                        <X_DOT units="km/s">3.4923176583469302</X_DOT>
                        <Y_DOT units="km/s">4.7410191687192196</Y_DOT>
                        <Z_DOT units="km/s">4.9094632737194797</Z_DOT>
                    </stateVector>
                    <stateVector>
                        <EPOCH>2022-035T03:56:00.000Z</EPOCH>
                        <X units="km">3633.4566146943298</X>
                        <Y units="km">-4003.2997681656502</Y>
                        <Z units="km">4103.4520946256598</Z>
                        <X_DOT units="km/s">2.4861059466882698</X_DOT>
                        <Y_DOT units="km/s">6.1746086619773104</Y_DOT>
                        <Z_DOT units="km/s">3.8063198175305502</Z_DOT>
                    </stateVector>
                    
                </data>
            </segment>
        </body>
    </oem>
</ndm>
